{
  "norad_id": 68865,
  "name": "KUIPER-00353",
  "history": [
    {
      "epoch": "2026-05-02T10:00:03.000096Z",
      "apogee_km": 451.97918763862344,
      "perigee_km": 450.07111973288374,
      "latitude_deg": 12.236731282989814,
      "longitude_deg": -96.43444437428037,
      "height_km": 451.03763018301197,
      "semi_major_axis_km": 6829.162153685753,
      "eccentricity": 0.0001397,
      "inclination_deg": 51.8826,
      "raan_deg": 103.6554,
      "arg_perigee_deg": 73.5622,
      "mean_anomaly_deg": 90.7916,
      "mean_motion_rev_day": 15.38337492
    },
    {
      "epoch": "2026-05-03T20:00:01.999008Z",
      "apogee_km": 451.8260797570547,
      "perigee_km": 449.9685824189992,
      "latitude_deg": 51.75027358106153,
      "longitude_deg": 33.26893635949915,
      "height_km": 456.0465310535817,
      "semi_major_axis_km": 6829.034331088027,
      "eccentricity": 0.000136,
      "inclination_deg": 51.8826,
      "raan_deg": 96.7941,
      "arg_perigee_deg": 96.5334,
      "mean_anomaly_deg": 358.5534,
      "mean_motion_rev_day": 15.38380683
    },
    {
      "epoch": "2026-05-04T20:00:01.999008Z",
      "apogee_km": 451.66040505219735,
      "perigee_km": 449.9640940586087,
      "latitude_deg": -41.45809232663134,
      "longitude_deg": 152.7993195705144,
      "height_km": 465.11419781591314,
      "semi_major_axis_km": 6828.949249555403,
      "eccentricity": 0.0001242,
      "inclination_deg": 51.8832,
      "raan_deg": 91.9521,
      "arg_perigee_deg": 94.5886,
      "mean_anomaly_deg": 142.3575,
      "mean_motion_rev_day": 15.38409433
    },
    {
      "epoch": "2026-05-05T20:00:03.000384Z",
      "apogee_km": 451.5875659982603,
      "perigee_km": 449.7833910994268,
      "latitude_deg": 14.83949220810984,
      "longitude_deg": -64.67550883780314,
      "height_km": 450.5645603981647,
      "semi_major_axis_km": 6828.822478548843,
      "eccentricity": 0.0001321,
      "inclination_deg": 51.884,
      "raan_deg": 87.1099,
      "arg_perigee_deg": 98.4554,
      "mean_anomaly_deg": 280.5378,
      "mean_motion_rev_day": 15.38452272
    },
    {
      "epoch": "2026-05-06T20:00:01.999008Z",
      "apogee_km": 451.4753338299179,
      "perigee_km": 449.6466085132379,
      "latitude_deg": 14.815181914066866,
      "longitude_deg": 85.66228979555972,
      "height_km": 450.16333563329334,
      "semi_major_axis_km": 6828.697971171578,
      "eccentricity": 0.0001339,
      "inclination_deg": 51.8846,
      "raan_deg": 82.2677,
      "arg_perigee_deg": 99.8772,
      "mean_anomaly_deg": 61.1626,
      "mean_motion_rev_day": 15.38494348
    },
    {
      "epoch": "2026-05-07T20:00:01.999008Z",
      "apogee_km": 451.4529366176466,
      "perigee_km": 449.53272590909546,
      "latitude_deg": -41.35134579342124,
      "longitude_deg": -131.62314287828497,
      "height_km": 464.9688082939515,
      "semi_major_axis_km": 6828.629831263371,
      "eccentricity": 0.0001406,
      "inclination_deg": 51.8846,
      "raan_deg": 77.425,
      "arg_perigee_deg": 101.1389,
      "mean_anomaly_deg": 202.1012,
      "mean_motion_rev_day": 15.38517376
    },
    {
      "epoch": "2026-05-08T20:00:01.999008Z",
      "apogee_km": 451.37154743447627,
      "perigee_km": 449.44862857449425,
      "latitude_deg": 51.81586528442365,
      "longitude_deg": -11.325223929474333,
      "height_km": 455.5852096632173,
      "semi_major_axis_km": 6828.547088004485,
      "eccentricity": 0.0001408,
      "inclination_deg": 51.8839,
      "raan_deg": 72.5826,
      "arg_perigee_deg": 102.9152,
      "mean_anomaly_deg": 342.6111,
      "mean_motion_rev_day": 15.3854534
    },
    {
      "epoch": "2026-05-09T20:34:22.843776Z",
      "apogee_km": 451.28005909266176,
      "perigee_km": 449.3175666400439,
      "latitude_deg": -2.6757050438120275e-05,
      "longitude_deg": -108.63897355555619,
      "height_km": 451.3587313851583,
      "semi_major_axis_km": 6828.4358128663525,
      "eccentricity": 0.0001437,
      "inclination_deg": 51.8835,
      "raan_deg": 67.625,
      "arg_perigee_deg": 107.6339,
      "mean_anomaly_deg": 252.4805,
      "mean_motion_rev_day": 15.38582948
    },
    {
      "epoch": "2026-05-10T19:57:22.114080Z",
      "apogee_km": 451.1733661568296,
      "perigee_km": 449.2982949775551,
      "latitude_deg": -6.097056642271027e-05,
      "longitude_deg": -105.06497202456222,
      "height_km": 451.2073601931703,
      "semi_major_axis_km": 6828.372830567192,
      "eccentricity": 0.0001373,
      "inclination_deg": 51.8832,
      "raan_deg": 62.9063,
      "arg_perigee_deg": 102.8708,
      "mean_anomaly_deg": 257.2432,
      "mean_motion_rev_day": 15.38604235
    }
  ]
}